<?xml version="1.0"?><gpx version="1.1" creator="sample"><trk><name>Sample</name><trkseg><trkpt lat="45.900000" lon="6.180000"><ele>500</ele><time>2026-06-01T08:00:00.000Z</time></trkpt><trkpt lat="45.900785" lon="6.179990"><ele>500</ele><time>2026-06-01T08:00:27.000Z</time></trkpt><trkpt lat="45.901571" lon="6.179961"><ele>501</ele><time>2026-06-01T08:00:54.000Z</time></trkpt><trkpt lat="45.902355" lon="6.179911"><ele>503</ele><time>2026-06-01T08:01:21.000Z</time></trkpt><trkpt lat="45.903140" lon="6.179842"><ele>505</ele><time>2026-06-01T08:01:48.000Z</time></trkpt><trkpt lat="45.903923" lon="6.179753"><ele>507</ele><time>2026-06-01T08:02:15.000Z</time></trkpt><trkpt lat="45.904705" lon="6.179645"><ele>511</ele><time>2026-06-01T08:02:42.000Z</time></trkpt><trkpt lat="45.905487" lon="6.179517"><ele>514</ele><time>2026-06-01T08:03:09.000Z</time></trkpt><trkpt lat="45.906267" lon="6.179369"><ele>519</ele><time>2026-06-01T08:03:36.000Z</time></trkpt><trkpt lat="45.907045" lon="6.179202"><ele>523</ele><time>2026-06-01T08:04:03.000Z</time></trkpt><trkpt lat="45.907822" lon="6.179015"><ele>529</ele><time>2026-06-01T08:04:30.000Z</time></trkpt><trkpt lat="45.908596" lon="6.178809"><ele>534</ele><time>2026-06-01T08:04:57.000Z</time></trkpt><trkpt lat="45.909369" lon="6.178583"><ele>541</ele><time>2026-06-01T08:05:24.000Z</time></trkpt><trkpt lat="45.910139" lon="6.178338"><ele>547</ele><time>2026-06-01T08:05:51.000Z</time></trkpt><trkpt lat="45.910907" lon="6.178073"><ele>554</ele><time>2026-06-01T08:06:18.000Z</time></trkpt><trkpt lat="45.911672" lon="6.177790"><ele>562</ele><time>2026-06-01T08:06:45.000Z</time></trkpt><trkpt lat="45.912434" lon="6.177487"><ele>570</ele><time>2026-06-01T08:07:12.000Z</time></trkpt><trkpt lat="45.913194" lon="6.177165"><ele>578</ele><time>2026-06-01T08:07:39.000Z</time></trkpt><trkpt lat="45.913950" lon="6.176823"><ele>586</ele><time>2026-06-01T08:08:06.000Z</time></trkpt><trkpt lat="45.914702" lon="6.176463"><ele>595</ele><time>2026-06-01T08:08:33.000Z</time></trkpt><trkpt lat="45.915451" lon="6.176085"><ele>604</ele><time>2026-06-01T08:09:00.000Z</time></trkpt><trkpt lat="45.916196" lon="6.175687"><ele>613</ele><time>2026-06-01T08:09:27.000Z</time></trkpt><trkpt lat="45.916937" lon="6.175270"><ele>622</ele><time>2026-06-01T08:09:54.000Z</time></trkpt><trkpt lat="45.917674" lon="6.174836"><ele>631</ele><time>2026-06-01T08:10:21.000Z</time></trkpt><trkpt lat="45.918406" lon="6.174382"><ele>641</ele><time>2026-06-01T08:10:48.000Z</time></trkpt><trkpt lat="45.919134" lon="6.173910"><ele>650</ele><time>2026-06-01T08:11:15.000Z</time></trkpt><trkpt lat="45.919857" lon="6.173420"><ele>659</ele><time>2026-06-01T08:11:42.000Z</time></trkpt><trkpt lat="45.920576" lon="6.172912"><ele>669</ele><time>2026-06-01T08:12:09.000Z</time></trkpt><trkpt lat="45.921289" lon="6.172386"><ele>678</ele><time>2026-06-01T08:12:36.000Z</time></trkpt><trkpt lat="45.921997" lon="6.171842"><ele>687</ele><time>2026-06-01T08:13:03.000Z</time></trkpt><trkpt lat="45.922700" lon="6.171281"><ele>696</ele><time>2026-06-01T08:13:30.000Z</time></trkpt><trkpt lat="45.923396" lon="6.170701"><ele>705</ele><time>2026-06-01T08:13:57.000Z</time></trkpt><trkpt lat="45.924088" lon="6.170105"><ele>714</ele><time>2026-06-01T08:14:24.000Z</time></trkpt><trkpt lat="45.924773" lon="6.169491"><ele>722</ele><time>2026-06-01T08:14:51.000Z</time></trkpt><trkpt lat="45.925452" lon="6.168859"><ele>730</ele><time>2026-06-01T08:15:18.000Z</time></trkpt><trkpt lat="45.926125" lon="6.168211"><ele>738</ele><time>2026-06-01T08:15:45.000Z</time></trkpt><trkpt lat="45.926791" lon="6.167546"><ele>746</ele><time>2026-06-01T08:16:12.000Z</time></trkpt><trkpt lat="45.927451" lon="6.166865"><ele>753</ele><time>2026-06-01T08:16:39.000Z</time></trkpt><trkpt lat="45.928104" lon="6.166166"><ele>759</ele><time>2026-06-01T08:17:06.000Z</time></trkpt><trkpt lat="45.928750" lon="6.165452"><ele>766</ele><time>2026-06-01T08:17:33.000Z</time></trkpt><trkpt lat="45.929389" lon="6.164721"><ele>771</ele><time>2026-06-01T08:18:00.000Z</time></trkpt><trkpt lat="45.930021" lon="6.163975"><ele>777</ele><time>2026-06-01T08:18:27.000Z</time></trkpt><trkpt lat="45.930645" lon="6.163212"><ele>781</ele><time>2026-06-01T08:18:54.000Z</time></trkpt><trkpt lat="45.931262" lon="6.162434"><ele>786</ele><time>2026-06-01T08:19:21.000Z</time></trkpt><trkpt lat="45.931871" lon="6.161641"><ele>789</ele><time>2026-06-01T08:19:48.000Z</time></trkpt><trkpt lat="45.932472" lon="6.160832"><ele>793</ele><time>2026-06-01T08:20:15.000Z</time></trkpt><trkpt lat="45.933066" lon="6.160009"><ele>795</ele><time>2026-06-01T08:20:42.000Z</time></trkpt><trkpt lat="45.933651" lon="6.159170"><ele>797</ele><time>2026-06-01T08:21:09.000Z</time></trkpt><trkpt lat="45.934227" lon="6.158317"><ele>799</ele><time>2026-06-01T08:21:36.000Z</time></trkpt><trkpt lat="45.934796" lon="6.157450"><ele>800</ele><time>2026-06-01T08:22:03.000Z</time></trkpt><trkpt lat="45.935355" lon="6.156569"><ele>800</ele><time>2026-06-01T08:22:30.000Z</time></trkpt><trkpt lat="45.935906" lon="6.155673"><ele>800</ele><time>2026-06-01T08:22:57.000Z</time></trkpt><trkpt lat="45.936448" lon="6.154764"><ele>799</ele><time>2026-06-01T08:23:24.000Z</time></trkpt><trkpt lat="45.936982" lon="6.153841"><ele>797</ele><time>2026-06-01T08:23:51.000Z</time></trkpt><trkpt lat="45.937506" lon="6.152905"><ele>795</ele><time>2026-06-01T08:24:18.000Z</time></trkpt><trkpt lat="45.938020" lon="6.151956"><ele>793</ele><time>2026-06-01T08:24:45.000Z</time></trkpt><trkpt lat="45.938526" lon="6.150994"><ele>789</ele><time>2026-06-01T08:25:12.000Z</time></trkpt><trkpt lat="45.939022" lon="6.150019"><ele>786</ele><time>2026-06-01T08:25:39.000Z</time></trkpt><trkpt lat="45.939508" lon="6.149033"><ele>781</ele><time>2026-06-01T08:26:06.000Z</time></trkpt><trkpt lat="45.939984" lon="6.148034"><ele>777</ele><time>2026-06-01T08:26:33.000Z</time></trkpt><trkpt lat="45.940451" lon="6.147023"><ele>771</ele><time>2026-06-01T08:27:00.000Z</time></trkpt><trkpt lat="45.940907" lon="6.146000"><ele>766</ele><time>2026-06-01T08:27:27.000Z</time></trkpt><trkpt lat="45.941354" lon="6.144967"><ele>759</ele><time>2026-06-01T08:27:54.000Z</time></trkpt><trkpt lat="45.941790" lon="6.143922"><ele>753</ele><time>2026-06-01T08:28:21.000Z</time></trkpt><trkpt lat="45.942216" lon="6.142866"><ele>746</ele><time>2026-06-01T08:28:48.000Z</time></trkpt><trkpt lat="45.942632" lon="6.141800"><ele>738</ele><time>2026-06-01T08:29:15.000Z</time></trkpt><trkpt lat="45.943037" lon="6.140723"><ele>730</ele><time>2026-06-01T08:29:42.000Z</time></trkpt><trkpt lat="45.943432" lon="6.139637"><ele>722</ele><time>2026-06-01T08:30:09.000Z</time></trkpt><trkpt lat="45.943815" lon="6.138540"><ele>714</ele><time>2026-06-01T08:30:36.000Z</time></trkpt><trkpt lat="45.944188" lon="6.137434"><ele>705</ele><time>2026-06-01T08:31:03.000Z</time></trkpt><trkpt lat="45.944550" lon="6.136319"><ele>696</ele><time>2026-06-01T08:31:30.000Z</time></trkpt><trkpt lat="45.944901" lon="6.135195"><ele>687</ele><time>2026-06-01T08:31:57.000Z</time></trkpt><trkpt lat="45.945241" lon="6.134062"><ele>678</ele><time>2026-06-01T08:32:24.000Z</time></trkpt><trkpt lat="45.945570" lon="6.132921"><ele>669</ele><time>2026-06-01T08:32:51.000Z</time></trkpt><trkpt lat="45.945888" lon="6.131772"><ele>659</ele><time>2026-06-01T08:33:18.000Z</time></trkpt><trkpt lat="45.946194" lon="6.130615"><ele>650</ele><time>2026-06-01T08:33:45.000Z</time></trkpt><trkpt lat="45.946489" lon="6.129450"><ele>641</ele><time>2026-06-01T08:34:12.000Z</time></trkpt><trkpt lat="45.946772" lon="6.128278"><ele>631</ele><time>2026-06-01T08:34:39.000Z</time></trkpt><trkpt lat="45.947044" lon="6.127099"><ele>622</ele><time>2026-06-01T08:35:06.000Z</time></trkpt><trkpt lat="45.947304" lon="6.125913"><ele>613</ele><time>2026-06-01T08:35:33.000Z</time></trkpt><trkpt lat="45.947553" lon="6.124721"><ele>604</ele><time>2026-06-01T08:36:00.000Z</time></trkpt><trkpt lat="45.947790" lon="6.123523"><ele>595</ele><time>2026-06-01T08:36:27.000Z</time></trkpt><trkpt lat="45.948015" lon="6.122319"><ele>586</ele><time>2026-06-01T08:36:54.000Z</time></trkpt><trkpt lat="45.948228" lon="6.121110"><ele>578</ele><time>2026-06-01T08:37:21.000Z</time></trkpt><trkpt lat="45.948429" lon="6.119895"><ele>570</ele><time>2026-06-01T08:37:48.000Z</time></trkpt><trkpt lat="45.948618" lon="6.118676"><ele>562</ele><time>2026-06-01T08:38:15.000Z</time></trkpt><trkpt lat="45.948796" lon="6.117451"><ele>554</ele><time>2026-06-01T08:38:42.000Z</time></trkpt><trkpt lat="45.948961" lon="6.116223"><ele>547</ele><time>2026-06-01T08:39:09.000Z</time></trkpt><trkpt lat="45.949114" lon="6.114991"><ele>541</ele><time>2026-06-01T08:39:36.000Z</time></trkpt><trkpt lat="45.949255" lon="6.113754"><ele>534</ele><time>2026-06-01T08:40:03.000Z</time></trkpt><trkpt lat="45.949384" lon="6.112515"><ele>529</ele><time>2026-06-01T08:40:30.000Z</time></trkpt><trkpt lat="45.949501" lon="6.111272"><ele>523</ele><time>2026-06-01T08:40:57.000Z</time></trkpt><trkpt lat="45.949606" lon="6.110027"><ele>519</ele><time>2026-06-01T08:41:24.000Z</time></trkpt><trkpt lat="45.949698" lon="6.108779"><ele>514</ele><time>2026-06-01T08:41:51.000Z</time></trkpt><trkpt lat="45.949778" lon="6.107529"><ele>511</ele><time>2026-06-01T08:42:18.000Z</time></trkpt><trkpt lat="45.949846" lon="6.106277"><ele>507</ele><time>2026-06-01T08:42:45.000Z</time></trkpt><trkpt lat="45.949901" lon="6.105023"><ele>505</ele><time>2026-06-01T08:43:12.000Z</time></trkpt><trkpt lat="45.949944" lon="6.103769"><ele>503</ele><time>2026-06-01T08:43:39.000Z</time></trkpt><trkpt lat="45.949975" lon="6.102513"><ele>501</ele><time>2026-06-01T08:44:06.000Z</time></trkpt><trkpt lat="45.949994" lon="6.101257"><ele>500</ele><time>2026-06-01T08:44:33.000Z</time></trkpt><trkpt lat="45.950000" lon="6.100000"><ele>500</ele><time>2026-06-01T08:45:00.000Z</time></trkpt><trkpt lat="45.949994" lon="6.098743"><ele>500</ele><time>2026-06-01T08:45:27.000Z</time></trkpt><trkpt lat="45.949975" lon="6.097487"><ele>501</ele><time>2026-06-01T08:45:54.000Z</time></trkpt><trkpt lat="45.949944" lon="6.096231"><ele>503</ele><time>2026-06-01T08:46:21.000Z</time></trkpt><trkpt lat="45.949901" lon="6.094977"><ele>505</ele><time>2026-06-01T08:46:48.000Z</time></trkpt><trkpt lat="45.949846" lon="6.093723"><ele>507</ele><time>2026-06-01T08:47:15.000Z</time></trkpt><trkpt lat="45.949778" lon="6.092471"><ele>511</ele><time>2026-06-01T08:47:42.000Z</time></trkpt><trkpt lat="45.949698" lon="6.091221"><ele>514</ele><time>2026-06-01T08:48:09.000Z</time></trkpt><trkpt lat="45.949606" lon="6.089973"><ele>519</ele><time>2026-06-01T08:48:36.000Z</time></trkpt><trkpt lat="45.949501" lon="6.088728"><ele>523</ele><time>2026-06-01T08:49:03.000Z</time></trkpt><trkpt lat="45.949384" lon="6.087485"><ele>529</ele><time>2026-06-01T08:49:30.000Z</time></trkpt><trkpt lat="45.949255" lon="6.086246"><ele>534</ele><time>2026-06-01T08:49:57.000Z</time></trkpt><trkpt lat="45.949114" lon="6.085009"><ele>541</ele><time>2026-06-01T08:50:24.000Z</time></trkpt><trkpt lat="45.948961" lon="6.083777"><ele>547</ele><time>2026-06-01T08:50:51.000Z</time></trkpt><trkpt lat="45.948796" lon="6.082549"><ele>554</ele><time>2026-06-01T08:51:18.000Z</time></trkpt><trkpt lat="45.948618" lon="6.081324"><ele>562</ele><time>2026-06-01T08:51:45.000Z</time></trkpt><trkpt lat="45.948429" lon="6.080105"><ele>570</ele><time>2026-06-01T08:52:12.000Z</time></trkpt><trkpt lat="45.948228" lon="6.078890"><ele>578</ele><time>2026-06-01T08:52:39.000Z</time></trkpt><trkpt lat="45.948015" lon="6.077681"><ele>586</ele><time>2026-06-01T08:53:06.000Z</time></trkpt><trkpt lat="45.947790" lon="6.076477"><ele>595</ele><time>2026-06-01T08:53:33.000Z</time></trkpt><trkpt lat="45.947553" lon="6.075279"><ele>604</ele><time>2026-06-01T08:54:00.000Z</time></trkpt><trkpt lat="45.947304" lon="6.074087"><ele>613</ele><time>2026-06-01T08:54:27.000Z</time></trkpt><trkpt lat="45.947044" lon="6.072901"><ele>622</ele><time>2026-06-01T08:54:54.000Z</time></trkpt><trkpt lat="45.946772" lon="6.071722"><ele>631</ele><time>2026-06-01T08:55:21.000Z</time></trkpt><trkpt lat="45.946489" lon="6.070550"><ele>641</ele><time>2026-06-01T08:55:48.000Z</time></trkpt><trkpt lat="45.946194" lon="6.069385"><ele>650</ele><time>2026-06-01T08:56:15.000Z</time></trkpt><trkpt lat="45.945888" lon="6.068228"><ele>659</ele><time>2026-06-01T08:56:42.000Z</time></trkpt><trkpt lat="45.945570" lon="6.067079"><ele>669</ele><time>2026-06-01T08:57:09.000Z</time></trkpt><trkpt lat="45.945241" lon="6.065938"><ele>678</ele><time>2026-06-01T08:57:36.000Z</time></trkpt><trkpt lat="45.944901" lon="6.064805"><ele>687</ele><time>2026-06-01T08:58:03.000Z</time></trkpt><trkpt lat="45.944550" lon="6.063681"><ele>696</ele><time>2026-06-01T08:58:30.000Z</time></trkpt><trkpt lat="45.944188" lon="6.062566"><ele>705</ele><time>2026-06-01T08:58:57.000Z</time></trkpt><trkpt lat="45.943815" lon="6.061460"><ele>714</ele><time>2026-06-01T08:59:24.000Z</time></trkpt><trkpt lat="45.943432" lon="6.060363"><ele>722</ele><time>2026-06-01T08:59:51.000Z</time></trkpt><trkpt lat="45.943037" lon="6.059277"><ele>730</ele><time>2026-06-01T09:00:18.000Z</time></trkpt><trkpt lat="45.942632" lon="6.058200"><ele>738</ele><time>2026-06-01T09:00:45.000Z</time></trkpt><trkpt lat="45.942216" lon="6.057134"><ele>746</ele><time>2026-06-01T09:01:12.000Z</time></trkpt><trkpt lat="45.941790" lon="6.056078"><ele>753</ele><time>2026-06-01T09:01:39.000Z</time></trkpt><trkpt lat="45.941354" lon="6.055033"><ele>759</ele><time>2026-06-01T09:02:06.000Z</time></trkpt><trkpt lat="45.940907" lon="6.054000"><ele>766</ele><time>2026-06-01T09:02:33.000Z</time></trkpt><trkpt lat="45.940451" lon="6.052977"><ele>771</ele><time>2026-06-01T09:03:00.000Z</time></trkpt><trkpt lat="45.939984" lon="6.051966"><ele>777</ele><time>2026-06-01T09:03:27.000Z</time></trkpt><trkpt lat="45.939508" lon="6.050967"><ele>781</ele><time>2026-06-01T09:03:54.000Z</time></trkpt><trkpt lat="45.939022" lon="6.049981"><ele>786</ele><time>2026-06-01T09:04:21.000Z</time></trkpt><trkpt lat="45.938526" lon="6.049006"><ele>789</ele><time>2026-06-01T09:04:48.000Z</time></trkpt><trkpt lat="45.938020" lon="6.048044"><ele>793</ele><time>2026-06-01T09:05:15.000Z</time></trkpt><trkpt lat="45.937506" lon="6.047095"><ele>795</ele><time>2026-06-01T09:05:42.000Z</time></trkpt><trkpt lat="45.936982" lon="6.046159"><ele>797</ele><time>2026-06-01T09:06:09.000Z</time></trkpt><trkpt lat="45.936448" lon="6.045236"><ele>799</ele><time>2026-06-01T09:06:36.000Z</time></trkpt><trkpt lat="45.935906" lon="6.044327"><ele>800</ele><time>2026-06-01T09:07:03.000Z</time></trkpt><trkpt lat="45.935355" lon="6.043431"><ele>800</ele><time>2026-06-01T09:07:30.000Z</time></trkpt><trkpt lat="45.934796" lon="6.042550"><ele>800</ele><time>2026-06-01T09:07:57.000Z</time></trkpt><trkpt lat="45.934227" lon="6.041683"><ele>799</ele><time>2026-06-01T09:08:24.000Z</time></trkpt><trkpt lat="45.933651" lon="6.040830"><ele>797</ele><time>2026-06-01T09:08:51.000Z</time></trkpt><trkpt lat="45.933066" lon="6.039991"><ele>795</ele><time>2026-06-01T09:09:18.000Z</time></trkpt><trkpt lat="45.932472" lon="6.039168"><ele>793</ele><time>2026-06-01T09:09:45.000Z</time></trkpt><trkpt lat="45.931871" lon="6.038359"><ele>789</ele><time>2026-06-01T09:10:12.000Z</time></trkpt><trkpt lat="45.931262" lon="6.037566"><ele>786</ele><time>2026-06-01T09:10:39.000Z</time></trkpt><trkpt lat="45.930645" lon="6.036788"><ele>781</ele><time>2026-06-01T09:11:06.000Z</time></trkpt><trkpt lat="45.930021" lon="6.036025"><ele>777</ele><time>2026-06-01T09:11:33.000Z</time></trkpt><trkpt lat="45.929389" lon="6.035279"><ele>771</ele><time>2026-06-01T09:12:00.000Z</time></trkpt><trkpt lat="45.928750" lon="6.034548"><ele>766</ele><time>2026-06-01T09:12:27.000Z</time></trkpt><trkpt lat="45.928104" lon="6.033834"><ele>759</ele><time>2026-06-01T09:12:54.000Z</time></trkpt><trkpt lat="45.927451" lon="6.033135"><ele>753</ele><time>2026-06-01T09:13:21.000Z</time></trkpt><trkpt lat="45.926791" lon="6.032454"><ele>746</ele><time>2026-06-01T09:13:48.000Z</time></trkpt><trkpt lat="45.926125" lon="6.031789"><ele>738</ele><time>2026-06-01T09:14:15.000Z</time></trkpt><trkpt lat="45.925452" lon="6.031141"><ele>730</ele><time>2026-06-01T09:14:42.000Z</time></trkpt><trkpt lat="45.924773" lon="6.030509"><ele>722</ele><time>2026-06-01T09:15:09.000Z</time></trkpt><trkpt lat="45.924088" lon="6.029895"><ele>714</ele><time>2026-06-01T09:15:36.000Z</time></trkpt><trkpt lat="45.923396" lon="6.029299"><ele>705</ele><time>2026-06-01T09:16:03.000Z</time></trkpt><trkpt lat="45.922700" lon="6.028719"><ele>696</ele><time>2026-06-01T09:16:30.000Z</time></trkpt><trkpt lat="45.921997" lon="6.028158"><ele>687</ele><time>2026-06-01T09:16:57.000Z</time></trkpt><trkpt lat="45.921289" lon="6.027614"><ele>678</ele><time>2026-06-01T09:17:24.000Z</time></trkpt><trkpt lat="45.920576" lon="6.027088"><ele>669</ele><time>2026-06-01T09:17:51.000Z</time></trkpt><trkpt lat="45.919857" lon="6.026580"><ele>659</ele><time>2026-06-01T09:18:18.000Z</time></trkpt><trkpt lat="45.919134" lon="6.026090"><ele>650</ele><time>2026-06-01T09:18:45.000Z</time></trkpt><trkpt lat="45.918406" lon="6.025618"><ele>641</ele><time>2026-06-01T09:19:12.000Z</time></trkpt><trkpt lat="45.917674" lon="6.025164"><ele>631</ele><time>2026-06-01T09:19:39.000Z</time></trkpt><trkpt lat="45.916937" lon="6.024730"><ele>622</ele><time>2026-06-01T09:20:06.000Z</time></trkpt><trkpt lat="45.916196" lon="6.024313"><ele>613</ele><time>2026-06-01T09:20:33.000Z</time></trkpt><trkpt lat="45.915451" lon="6.023915"><ele>604</ele><time>2026-06-01T09:21:00.000Z</time></trkpt><trkpt lat="45.914702" lon="6.023537"><ele>595</ele><time>2026-06-01T09:21:27.000Z</time></trkpt><trkpt lat="45.913950" lon="6.023177"><ele>586</ele><time>2026-06-01T09:21:54.000Z</time></trkpt><trkpt lat="45.913194" lon="6.022835"><ele>578</ele><time>2026-06-01T09:22:21.000Z</time></trkpt><trkpt lat="45.912434" lon="6.022513"><ele>570</ele><time>2026-06-01T09:22:48.000Z</time></trkpt><trkpt lat="45.911672" lon="6.022210"><ele>562</ele><time>2026-06-01T09:23:15.000Z</time></trkpt><trkpt lat="45.910907" lon="6.021927"><ele>554</ele><time>2026-06-01T09:23:42.000Z</time></trkpt><trkpt lat="45.910139" lon="6.021662"><ele>547</ele><time>2026-06-01T09:24:09.000Z</time></trkpt><trkpt lat="45.909369" lon="6.021417"><ele>541</ele><time>2026-06-01T09:24:36.000Z</time></trkpt><trkpt lat="45.908596" lon="6.021191"><ele>534</ele><time>2026-06-01T09:25:03.000Z</time></trkpt><trkpt lat="45.907822" lon="6.020985"><ele>529</ele><time>2026-06-01T09:25:30.000Z</time></trkpt><trkpt lat="45.907045" lon="6.020798"><ele>523</ele><time>2026-06-01T09:25:57.000Z</time></trkpt><trkpt lat="45.906267" lon="6.020631"><ele>519</ele><time>2026-06-01T09:26:24.000Z</time></trkpt><trkpt lat="45.905487" lon="6.020483"><ele>514</ele><time>2026-06-01T09:26:51.000Z</time></trkpt><trkpt lat="45.904705" lon="6.020355"><ele>511</ele><time>2026-06-01T09:27:18.000Z</time></trkpt><trkpt lat="45.903923" lon="6.020247"><ele>507</ele><time>2026-06-01T09:27:45.000Z</time></trkpt><trkpt lat="45.903140" lon="6.020158"><ele>505</ele><time>2026-06-01T09:28:12.000Z</time></trkpt><trkpt lat="45.902355" lon="6.020089"><ele>503</ele><time>2026-06-01T09:28:39.000Z</time></trkpt><trkpt lat="45.901571" lon="6.020039"><ele>501</ele><time>2026-06-01T09:29:06.000Z</time></trkpt><trkpt lat="45.900785" lon="6.020010"><ele>500</ele><time>2026-06-01T09:29:33.000Z</time></trkpt><trkpt lat="45.900000" lon="6.020000"><ele>500</ele><time>2026-06-01T09:30:00.000Z</time></trkpt><trkpt lat="45.899215" lon="6.020010"><ele>500</ele><time>2026-06-01T09:30:27.000Z</time></trkpt><trkpt lat="45.898429" lon="6.020039"><ele>501</ele><time>2026-06-01T09:30:54.000Z</time></trkpt><trkpt lat="45.897645" lon="6.020089"><ele>503</ele><time>2026-06-01T09:31:21.000Z</time></trkpt><trkpt lat="45.896860" lon="6.020158"><ele>505</ele><time>2026-06-01T09:31:48.000Z</time></trkpt><trkpt lat="45.896077" lon="6.020247"><ele>507</ele><time>2026-06-01T09:32:15.000Z</time></trkpt><trkpt lat="45.895295" lon="6.020355"><ele>511</ele><time>2026-06-01T09:32:42.000Z</time></trkpt><trkpt lat="45.894513" lon="6.020483"><ele>514</ele><time>2026-06-01T09:33:09.000Z</time></trkpt><trkpt lat="45.893733" lon="6.020631"><ele>519</ele><time>2026-06-01T09:33:36.000Z</time></trkpt><trkpt lat="45.892955" lon="6.020798"><ele>523</ele><time>2026-06-01T09:34:03.000Z</time></trkpt><trkpt lat="45.892178" lon="6.020985"><ele>529</ele><time>2026-06-01T09:34:30.000Z</time></trkpt><trkpt lat="45.891404" lon="6.021191"><ele>534</ele><time>2026-06-01T09:34:57.000Z</time></trkpt><trkpt lat="45.890631" lon="6.021417"><ele>541</ele><time>2026-06-01T09:35:24.000Z</time></trkpt><trkpt lat="45.889861" lon="6.021662"><ele>547</ele><time>2026-06-01T09:35:51.000Z</time></trkpt><trkpt lat="45.889093" lon="6.021927"><ele>554</ele><time>2026-06-01T09:36:18.000Z</time></trkpt><trkpt lat="45.888328" lon="6.022210"><ele>562</ele><time>2026-06-01T09:36:45.000Z</time></trkpt><trkpt lat="45.887566" lon="6.022513"><ele>570</ele><time>2026-06-01T09:37:12.000Z</time></trkpt><trkpt lat="45.886806" lon="6.022835"><ele>578</ele><time>2026-06-01T09:37:39.000Z</time></trkpt><trkpt lat="45.886050" lon="6.023177"><ele>586</ele><time>2026-06-01T09:38:06.000Z</time></trkpt><trkpt lat="45.885298" lon="6.023537"><ele>595</ele><time>2026-06-01T09:38:33.000Z</time></trkpt><trkpt lat="45.884549" lon="6.023915"><ele>604</ele><time>2026-06-01T09:39:00.000Z</time></trkpt><trkpt lat="45.883804" lon="6.024313"><ele>613</ele><time>2026-06-01T09:39:27.000Z</time></trkpt><trkpt lat="45.883063" lon="6.024730"><ele>622</ele><time>2026-06-01T09:39:54.000Z</time></trkpt><trkpt lat="45.882326" lon="6.025164"><ele>631</ele><time>2026-06-01T09:40:21.000Z</time></trkpt><trkpt lat="45.881594" lon="6.025618"><ele>641</ele><time>2026-06-01T09:40:48.000Z</time></trkpt><trkpt lat="45.880866" lon="6.026090"><ele>650</ele><time>2026-06-01T09:41:15.000Z</time></trkpt><trkpt lat="45.880143" lon="6.026580"><ele>659</ele><time>2026-06-01T09:41:42.000Z</time></trkpt><trkpt lat="45.879424" lon="6.027088"><ele>669</ele><time>2026-06-01T09:42:09.000Z</time></trkpt><trkpt lat="45.878711" lon="6.027614"><ele>678</ele><time>2026-06-01T09:42:36.000Z</time></trkpt><trkpt lat="45.878003" lon="6.028158"><ele>687</ele><time>2026-06-01T09:43:03.000Z</time></trkpt><trkpt lat="45.877300" lon="6.028719"><ele>696</ele><time>2026-06-01T09:43:30.000Z</time></trkpt><trkpt lat="45.876604" lon="6.029299"><ele>705</ele><time>2026-06-01T09:43:57.000Z</time></trkpt><trkpt lat="45.875912" lon="6.029895"><ele>714</ele><time>2026-06-01T09:44:24.000Z</time></trkpt><trkpt lat="45.875227" lon="6.030509"><ele>722</ele><time>2026-06-01T09:44:51.000Z</time></trkpt><trkpt lat="45.874548" lon="6.031141"><ele>730</ele><time>2026-06-01T09:45:18.000Z</time></trkpt><trkpt lat="45.873875" lon="6.031789"><ele>738</ele><time>2026-06-01T09:45:45.000Z</time></trkpt><trkpt lat="45.873209" lon="6.032454"><ele>746</ele><time>2026-06-01T09:46:12.000Z</time></trkpt><trkpt lat="45.872549" lon="6.033135"><ele>753</ele><time>2026-06-01T09:46:39.000Z</time></trkpt><trkpt lat="45.871896" lon="6.033834"><ele>759</ele><time>2026-06-01T09:47:06.000Z</time></trkpt><trkpt lat="45.871250" lon="6.034548"><ele>766</ele><time>2026-06-01T09:47:33.000Z</time></trkpt><trkpt lat="45.870611" lon="6.035279"><ele>771</ele><time>2026-06-01T09:48:00.000Z</time></trkpt><trkpt lat="45.869979" lon="6.036025"><ele>777</ele><time>2026-06-01T09:48:27.000Z</time></trkpt><trkpt lat="45.869355" lon="6.036788"><ele>781</ele><time>2026-06-01T09:48:54.000Z</time></trkpt><trkpt lat="45.868738" lon="6.037566"><ele>786</ele><time>2026-06-01T09:49:21.000Z</time></trkpt><trkpt lat="45.868129" lon="6.038359"><ele>789</ele><time>2026-06-01T09:49:48.000Z</time></trkpt><trkpt lat="45.867528" lon="6.039168"><ele>793</ele><time>2026-06-01T09:50:15.000Z</time></trkpt><trkpt lat="45.866934" lon="6.039991"><ele>795</ele><time>2026-06-01T09:50:42.000Z</time></trkpt><trkpt lat="45.866349" lon="6.040830"><ele>797</ele><time>2026-06-01T09:51:09.000Z</time></trkpt><trkpt lat="45.865773" lon="6.041683"><ele>799</ele><time>2026-06-01T09:51:36.000Z</time></trkpt><trkpt lat="45.865204" lon="6.042550"><ele>800</ele><time>2026-06-01T09:52:03.000Z</time></trkpt><trkpt lat="45.864645" lon="6.043431"><ele>800</ele><time>2026-06-01T09:52:30.000Z</time></trkpt><trkpt lat="45.864094" lon="6.044327"><ele>800</ele><time>2026-06-01T09:52:57.000Z</time></trkpt><trkpt lat="45.863552" lon="6.045236"><ele>799</ele><time>2026-06-01T09:53:24.000Z</time></trkpt><trkpt lat="45.863018" lon="6.046159"><ele>797</ele><time>2026-06-01T09:53:51.000Z</time></trkpt><trkpt lat="45.862494" lon="6.047095"><ele>795</ele><time>2026-06-01T09:54:18.000Z</time></trkpt><trkpt lat="45.861980" lon="6.048044"><ele>793</ele><time>2026-06-01T09:54:45.000Z</time></trkpt><trkpt lat="45.861474" lon="6.049006"><ele>789</ele><time>2026-06-01T09:55:12.000Z</time></trkpt><trkpt lat="45.860978" lon="6.049981"><ele>786</ele><time>2026-06-01T09:55:39.000Z</time></trkpt><trkpt lat="45.860492" lon="6.050967"><ele>781</ele><time>2026-06-01T09:56:06.000Z</time></trkpt><trkpt lat="45.860016" lon="6.051966"><ele>777</ele><time>2026-06-01T09:56:33.000Z</time></trkpt><trkpt lat="45.859549" lon="6.052977"><ele>771</ele><time>2026-06-01T09:57:00.000Z</time></trkpt><trkpt lat="45.859093" lon="6.054000"><ele>766</ele><time>2026-06-01T09:57:27.000Z</time></trkpt><trkpt lat="45.858646" lon="6.055033"><ele>759</ele><time>2026-06-01T09:57:54.000Z</time></trkpt><trkpt lat="45.858210" lon="6.056078"><ele>753</ele><time>2026-06-01T09:58:21.000Z</time></trkpt><trkpt lat="45.857784" lon="6.057134"><ele>746</ele><time>2026-06-01T09:58:48.000Z</time></trkpt><trkpt lat="45.857368" lon="6.058200"><ele>738</ele><time>2026-06-01T09:59:15.000Z</time></trkpt><trkpt lat="45.856963" lon="6.059277"><ele>730</ele><time>2026-06-01T09:59:42.000Z</time></trkpt><trkpt lat="45.856568" lon="6.060363"><ele>722</ele><time>2026-06-01T10:00:09.000Z</time></trkpt><trkpt lat="45.856185" lon="6.061460"><ele>714</ele><time>2026-06-01T10:00:36.000Z</time></trkpt><trkpt lat="45.855812" lon="6.062566"><ele>705</ele><time>2026-06-01T10:01:03.000Z</time></trkpt><trkpt lat="45.855450" lon="6.063681"><ele>696</ele><time>2026-06-01T10:01:30.000Z</time></trkpt><trkpt lat="45.855099" lon="6.064805"><ele>687</ele><time>2026-06-01T10:01:57.000Z</time></trkpt><trkpt lat="45.854759" lon="6.065938"><ele>678</ele><time>2026-06-01T10:02:24.000Z</time></trkpt><trkpt lat="45.854430" lon="6.067079"><ele>669</ele><time>2026-06-01T10:02:51.000Z</time></trkpt><trkpt lat="45.854112" lon="6.068228"><ele>659</ele><time>2026-06-01T10:03:18.000Z</time></trkpt><trkpt lat="45.853806" lon="6.069385"><ele>650</ele><time>2026-06-01T10:03:45.000Z</time></trkpt><trkpt lat="45.853511" lon="6.070550"><ele>641</ele><time>2026-06-01T10:04:12.000Z</time></trkpt><trkpt lat="45.853228" lon="6.071722"><ele>631</ele><time>2026-06-01T10:04:39.000Z</time></trkpt><trkpt lat="45.852956" lon="6.072901"><ele>622</ele><time>2026-06-01T10:05:06.000Z</time></trkpt><trkpt lat="45.852696" lon="6.074087"><ele>613</ele><time>2026-06-01T10:05:33.000Z</time></trkpt><trkpt lat="45.852447" lon="6.075279"><ele>604</ele><time>2026-06-01T10:06:00.000Z</time></trkpt><trkpt lat="45.852210" lon="6.076477"><ele>595</ele><time>2026-06-01T10:06:27.000Z</time></trkpt><trkpt lat="45.851985" lon="6.077681"><ele>586</ele><time>2026-06-01T10:06:54.000Z</time></trkpt><trkpt lat="45.851772" lon="6.078890"><ele>578</ele><time>2026-06-01T10:07:21.000Z</time></trkpt><trkpt lat="45.851571" lon="6.080105"><ele>570</ele><time>2026-06-01T10:07:48.000Z</time></trkpt><trkpt lat="45.851382" lon="6.081324"><ele>562</ele><time>2026-06-01T10:08:15.000Z</time></trkpt><trkpt lat="45.851204" lon="6.082549"><ele>554</ele><time>2026-06-01T10:08:42.000Z</time></trkpt><trkpt lat="45.851039" lon="6.083777"><ele>547</ele><time>2026-06-01T10:09:09.000Z</time></trkpt><trkpt lat="45.850886" lon="6.085009"><ele>541</ele><time>2026-06-01T10:09:36.000Z</time></trkpt><trkpt lat="45.850745" lon="6.086246"><ele>534</ele><time>2026-06-01T10:10:03.000Z</time></trkpt><trkpt lat="45.850616" lon="6.087485"><ele>529</ele><time>2026-06-01T10:10:30.000Z</time></trkpt><trkpt lat="45.850499" lon="6.088728"><ele>523</ele><time>2026-06-01T10:10:57.000Z</time></trkpt><trkpt lat="45.850394" lon="6.089973"><ele>519</ele><time>2026-06-01T10:11:24.000Z</time></trkpt><trkpt lat="45.850302" lon="6.091221"><ele>514</ele><time>2026-06-01T10:11:51.000Z</time></trkpt><trkpt lat="45.850222" lon="6.092471"><ele>511</ele><time>2026-06-01T10:12:18.000Z</time></trkpt><trkpt lat="45.850154" lon="6.093723"><ele>507</ele><time>2026-06-01T10:12:45.000Z</time></trkpt><trkpt lat="45.850099" lon="6.094977"><ele>505</ele><time>2026-06-01T10:13:12.000Z</time></trkpt><trkpt lat="45.850056" lon="6.096231"><ele>503</ele><time>2026-06-01T10:13:39.000Z</time></trkpt><trkpt lat="45.850025" lon="6.097487"><ele>501</ele><time>2026-06-01T10:14:06.000Z</time></trkpt><trkpt lat="45.850006" lon="6.098743"><ele>500</ele><time>2026-06-01T10:14:33.000Z</time></trkpt><trkpt lat="45.850000" lon="6.100000"><ele>500</ele><time>2026-06-01T10:15:00.000Z</time></trkpt><trkpt lat="45.850006" lon="6.101257"><ele>500</ele><time>2026-06-01T10:15:27.000Z</time></trkpt><trkpt lat="45.850025" lon="6.102513"><ele>501</ele><time>2026-06-01T10:15:54.000Z</time></trkpt><trkpt lat="45.850056" lon="6.103769"><ele>503</ele><time>2026-06-01T10:16:21.000Z</time></trkpt><trkpt lat="45.850099" lon="6.105023"><ele>505</ele><time>2026-06-01T10:16:48.000Z</time></trkpt><trkpt lat="45.850154" lon="6.106277"><ele>507</ele><time>2026-06-01T10:17:15.000Z</time></trkpt><trkpt lat="45.850222" lon="6.107529"><ele>511</ele><time>2026-06-01T10:17:42.000Z</time></trkpt><trkpt lat="45.850302" lon="6.108779"><ele>514</ele><time>2026-06-01T10:18:09.000Z</time></trkpt><trkpt lat="45.850394" lon="6.110027"><ele>519</ele><time>2026-06-01T10:18:36.000Z</time></trkpt><trkpt lat="45.850499" lon="6.111272"><ele>523</ele><time>2026-06-01T10:19:03.000Z</time></trkpt><trkpt lat="45.850616" lon="6.112515"><ele>529</ele><time>2026-06-01T10:19:30.000Z</time></trkpt><trkpt lat="45.850745" lon="6.113754"><ele>534</ele><time>2026-06-01T10:19:57.000Z</time></trkpt><trkpt lat="45.850886" lon="6.114991"><ele>541</ele><time>2026-06-01T10:20:24.000Z</time></trkpt><trkpt lat="45.851039" lon="6.116223"><ele>547</ele><time>2026-06-01T10:20:51.000Z</time></trkpt><trkpt lat="45.851204" lon="6.117451"><ele>554</ele><time>2026-06-01T10:21:18.000Z</time></trkpt><trkpt lat="45.851382" lon="6.118676"><ele>562</ele><time>2026-06-01T10:21:45.000Z</time></trkpt><trkpt lat="45.851571" lon="6.119895"><ele>570</ele><time>2026-06-01T10:22:12.000Z</time></trkpt><trkpt lat="45.851772" lon="6.121110"><ele>578</ele><time>2026-06-01T10:22:39.000Z</time></trkpt><trkpt lat="45.851985" lon="6.122319"><ele>586</ele><time>2026-06-01T10:23:06.000Z</time></trkpt><trkpt lat="45.852210" lon="6.123523"><ele>595</ele><time>2026-06-01T10:23:33.000Z</time></trkpt><trkpt lat="45.852447" lon="6.124721"><ele>604</ele><time>2026-06-01T10:24:00.000Z</time></trkpt><trkpt lat="45.852696" lon="6.125913"><ele>613</ele><time>2026-06-01T10:24:27.000Z</time></trkpt><trkpt lat="45.852956" lon="6.127099"><ele>622</ele><time>2026-06-01T10:24:54.000Z</time></trkpt><trkpt lat="45.853228" lon="6.128278"><ele>631</ele><time>2026-06-01T10:25:21.000Z</time></trkpt><trkpt lat="45.853511" lon="6.129450"><ele>641</ele><time>2026-06-01T10:25:48.000Z</time></trkpt><trkpt lat="45.853806" lon="6.130615"><ele>650</ele><time>2026-06-01T10:26:15.000Z</time></trkpt><trkpt lat="45.854112" lon="6.131772"><ele>659</ele><time>2026-06-01T10:26:42.000Z</time></trkpt><trkpt lat="45.854430" lon="6.132921"><ele>669</ele><time>2026-06-01T10:27:09.000Z</time></trkpt><trkpt lat="45.854759" lon="6.134062"><ele>678</ele><time>2026-06-01T10:27:36.000Z</time></trkpt><trkpt lat="45.855099" lon="6.135195"><ele>687</ele><time>2026-06-01T10:28:03.000Z</time></trkpt><trkpt lat="45.855450" lon="6.136319"><ele>696</ele><time>2026-06-01T10:28:30.000Z</time></trkpt><trkpt lat="45.855812" lon="6.137434"><ele>705</ele><time>2026-06-01T10:28:57.000Z</time></trkpt><trkpt lat="45.856185" lon="6.138540"><ele>714</ele><time>2026-06-01T10:29:24.000Z</time></trkpt><trkpt lat="45.856568" lon="6.139637"><ele>722</ele><time>2026-06-01T10:29:51.000Z</time></trkpt><trkpt lat="45.856963" lon="6.140723"><ele>730</ele><time>2026-06-01T10:30:18.000Z</time></trkpt><trkpt lat="45.857368" lon="6.141800"><ele>738</ele><time>2026-06-01T10:30:45.000Z</time></trkpt><trkpt lat="45.857784" lon="6.142866"><ele>746</ele><time>2026-06-01T10:31:12.000Z</time></trkpt><trkpt lat="45.858210" lon="6.143922"><ele>753</ele><time>2026-06-01T10:31:39.000Z</time></trkpt><trkpt lat="45.858646" lon="6.144967"><ele>759</ele><time>2026-06-01T10:32:06.000Z</time></trkpt><trkpt lat="45.859093" lon="6.146000"><ele>766</ele><time>2026-06-01T10:32:33.000Z</time></trkpt><trkpt lat="45.859549" lon="6.147023"><ele>771</ele><time>2026-06-01T10:33:00.000Z</time></trkpt><trkpt lat="45.860016" lon="6.148034"><ele>777</ele><time>2026-06-01T10:33:27.000Z</time></trkpt><trkpt lat="45.860492" lon="6.149033"><ele>781</ele><time>2026-06-01T10:33:54.000Z</time></trkpt><trkpt lat="45.860978" lon="6.150019"><ele>786</ele><time>2026-06-01T10:34:21.000Z</time></trkpt><trkpt lat="45.861474" lon="6.150994"><ele>789</ele><time>2026-06-01T10:34:48.000Z</time></trkpt><trkpt lat="45.861980" lon="6.151956"><ele>793</ele><time>2026-06-01T10:35:15.000Z</time></trkpt><trkpt lat="45.862494" lon="6.152905"><ele>795</ele><time>2026-06-01T10:35:42.000Z</time></trkpt><trkpt lat="45.863018" lon="6.153841"><ele>797</ele><time>2026-06-01T10:36:09.000Z</time></trkpt><trkpt lat="45.863552" lon="6.154764"><ele>799</ele><time>2026-06-01T10:36:36.000Z</time></trkpt><trkpt lat="45.864094" lon="6.155673"><ele>800</ele><time>2026-06-01T10:37:03.000Z</time></trkpt><trkpt lat="45.864645" lon="6.156569"><ele>800</ele><time>2026-06-01T10:37:30.000Z</time></trkpt><trkpt lat="45.865204" lon="6.157450"><ele>800</ele><time>2026-06-01T10:37:57.000Z</time></trkpt><trkpt lat="45.865773" lon="6.158317"><ele>799</ele><time>2026-06-01T10:38:24.000Z</time></trkpt><trkpt lat="45.866349" lon="6.159170"><ele>797</ele><time>2026-06-01T10:38:51.000Z</time></trkpt><trkpt lat="45.866934" lon="6.160009"><ele>795</ele><time>2026-06-01T10:39:18.000Z</time></trkpt><trkpt lat="45.867528" lon="6.160832"><ele>793</ele><time>2026-06-01T10:39:45.000Z</time></trkpt><trkpt lat="45.868129" lon="6.161641"><ele>789</ele><time>2026-06-01T10:40:12.000Z</time></trkpt><trkpt lat="45.868738" lon="6.162434"><ele>786</ele><time>2026-06-01T10:40:39.000Z</time></trkpt><trkpt lat="45.869355" lon="6.163212"><ele>781</ele><time>2026-06-01T10:41:06.000Z</time></trkpt><trkpt lat="45.869979" lon="6.163975"><ele>777</ele><time>2026-06-01T10:41:33.000Z</time></trkpt><trkpt lat="45.870611" lon="6.164721"><ele>771</ele><time>2026-06-01T10:42:00.000Z</time></trkpt><trkpt lat="45.871250" lon="6.165452"><ele>766</ele><time>2026-06-01T10:42:27.000Z</time></trkpt><trkpt lat="45.871896" lon="6.166166"><ele>759</ele><time>2026-06-01T10:42:54.000Z</time></trkpt><trkpt lat="45.872549" lon="6.166865"><ele>753</ele><time>2026-06-01T10:43:21.000Z</time></trkpt><trkpt lat="45.873209" lon="6.167546"><ele>746</ele><time>2026-06-01T10:43:48.000Z</time></trkpt><trkpt lat="45.873875" lon="6.168211"><ele>738</ele><time>2026-06-01T10:44:15.000Z</time></trkpt><trkpt lat="45.874548" lon="6.168859"><ele>730</ele><time>2026-06-01T10:44:42.000Z</time></trkpt><trkpt lat="45.875227" lon="6.169491"><ele>722</ele><time>2026-06-01T10:45:09.000Z</time></trkpt><trkpt lat="45.875912" lon="6.170105"><ele>714</ele><time>2026-06-01T10:45:36.000Z</time></trkpt><trkpt lat="45.876604" lon="6.170701"><ele>705</ele><time>2026-06-01T10:46:03.000Z</time></trkpt><trkpt lat="45.877300" lon="6.171281"><ele>696</ele><time>2026-06-01T10:46:30.000Z</time></trkpt><trkpt lat="45.878003" lon="6.171842"><ele>687</ele><time>2026-06-01T10:46:57.000Z</time></trkpt><trkpt lat="45.878711" lon="6.172386"><ele>678</ele><time>2026-06-01T10:47:24.000Z</time></trkpt><trkpt lat="45.879424" lon="6.172912"><ele>669</ele><time>2026-06-01T10:47:51.000Z</time></trkpt><trkpt lat="45.880143" lon="6.173420"><ele>659</ele><time>2026-06-01T10:48:18.000Z</time></trkpt><trkpt lat="45.880866" lon="6.173910"><ele>650</ele><time>2026-06-01T10:48:45.000Z</time></trkpt><trkpt lat="45.881594" lon="6.174382"><ele>641</ele><time>2026-06-01T10:49:12.000Z</time></trkpt><trkpt lat="45.882326" lon="6.174836"><ele>631</ele><time>2026-06-01T10:49:39.000Z</time></trkpt><trkpt lat="45.883063" lon="6.175270"><ele>622</ele><time>2026-06-01T10:50:06.000Z</time></trkpt><trkpt lat="45.883804" lon="6.175687"><ele>613</ele><time>2026-06-01T10:50:33.000Z</time></trkpt><trkpt lat="45.884549" lon="6.176085"><ele>604</ele><time>2026-06-01T10:51:00.000Z</time></trkpt><trkpt lat="45.885298" lon="6.176463"><ele>595</ele><time>2026-06-01T10:51:27.000Z</time></trkpt><trkpt lat="45.886050" lon="6.176823"><ele>586</ele><time>2026-06-01T10:51:54.000Z</time></trkpt><trkpt lat="45.886806" lon="6.177165"><ele>578</ele><time>2026-06-01T10:52:21.000Z</time></trkpt><trkpt lat="45.887566" lon="6.177487"><ele>570</ele><time>2026-06-01T10:52:48.000Z</time></trkpt><trkpt lat="45.888328" lon="6.177790"><ele>562</ele><time>2026-06-01T10:53:15.000Z</time></trkpt><trkpt lat="45.889093" lon="6.178073"><ele>554</ele><time>2026-06-01T10:53:42.000Z</time></trkpt><trkpt lat="45.889861" lon="6.178338"><ele>547</ele><time>2026-06-01T10:54:09.000Z</time></trkpt><trkpt lat="45.890631" lon="6.178583"><ele>541</ele><time>2026-06-01T10:54:36.000Z</time></trkpt><trkpt lat="45.891404" lon="6.178809"><ele>534</ele><time>2026-06-01T10:55:03.000Z</time></trkpt><trkpt lat="45.892178" lon="6.179015"><ele>529</ele><time>2026-06-01T10:55:30.000Z</time></trkpt><trkpt lat="45.892955" lon="6.179202"><ele>523</ele><time>2026-06-01T10:55:57.000Z</time></trkpt><trkpt lat="45.893733" lon="6.179369"><ele>519</ele><time>2026-06-01T10:56:24.000Z</time></trkpt><trkpt lat="45.894513" lon="6.179517"><ele>514</ele><time>2026-06-01T10:56:51.000Z</time></trkpt><trkpt lat="45.895295" lon="6.179645"><ele>511</ele><time>2026-06-01T10:57:18.000Z</time></trkpt><trkpt lat="45.896077" lon="6.179753"><ele>507</ele><time>2026-06-01T10:57:45.000Z</time></trkpt><trkpt lat="45.896860" lon="6.179842"><ele>505</ele><time>2026-06-01T10:58:12.000Z</time></trkpt><trkpt lat="45.897645" lon="6.179911"><ele>503</ele><time>2026-06-01T10:58:39.000Z</time></trkpt><trkpt lat="45.898429" lon="6.179961"><ele>501</ele><time>2026-06-01T10:59:06.000Z</time></trkpt><trkpt lat="45.899215" lon="6.179990"><ele>500</ele><time>2026-06-01T10:59:33.000Z</time></trkpt><trkpt lat="45.900000" lon="6.180000"><ele>500</ele><time>2026-06-01T11:00:00.000Z</time></trkpt></trkseg></trk></gpx>